{"type": "FeatureCollection", "features": [{"type": "Feature", "properties": {"norad_id": 28890, "name": "BEIJING 1", "group": "dmc", "lat": -78.4331801394201, "lon": -115.3859352523377, "alt_km": 692.8446720428319, "timestamp": "2025-12-08T08:59:00.438650+00:00", "meta": {"OBJECT_NAME": "BEIJING 1", "OBJECT_ID": "2005-043A", "EPOCH": "2025-12-07T21:56:42.554688", "MEAN_MOTION": 14.63358858, "ECCENTRICITY": 0.00151206, "INCLINATION": 98.2657, "RA_OF_ASC_NODE": 109.4102, "ARG_OF_PERICENTER": 155.9756, "MEAN_ANOMALY": 204.2154, "EPHEMERIS_TYPE": 0, "CLASSIFICATION_TYPE": "U", "NORAD_CAT_ID": 28890, "ELEMENT_SET_NO": 999, "REV_AT_EPOCH": 7267, "BSTAR": 0.00014661008, "MEAN_MOTION_DOT": 7.1e-06, "MEAN_MOTION_DDOT": 0}, "tle": {"line1": "1 28890U 05043A   25341.91438142  .00000710  00000+0  14661-3 0  9994", "line2": "2 28890  98.2657 109.4102 0015120 155.9756 204.2154 14.63358858 72671"}}, "geometry": {"type": "Point", "coordinates": [-115.3859352523377, -78.4331801394201]}}, {"type": "Feature", "properties": {"norad_id": 33320, "name": "HUANJING 1A (HJ-1A)", "group": "dmc", "lat": -24.984940274803154, "lon": -25.552382306267965, "alt_km": 620.1873670536961, "timestamp": "2025-12-08T08:59:00.438674+00:00", "meta": {"OBJECT_NAME": "HUANJING 1A (HJ-1A)", "OBJECT_ID": "2008-041A", "EPOCH": "2025-12-07T23:22:59.272896", "MEAN_MOTION": 14.83370889, "ECCENTRICITY": 0.00204187, "INCLINATION": 97.6538, "RA_OF_ASC_NODE": 330.4716, "ARG_OF_PERICENTER": 49.4553, "MEAN_ANOMALY": 310.8435, "EPHEMERIS_TYPE": 0, "CLASSIFICATION_TYPE": "U", "NORAD_CAT_ID": 33320, "ELEMENT_SET_NO": 999, "REV_AT_EPOCH": 93005, "BSTAR": 0.00029750269, "MEAN_MOTION_DOT": 2.397e-05, "MEAN_MOTION_DDOT": 0}, "tle": {"line1": "1 33320U 08041A   25341.97429714  .00002397  00000+0  29750-3 0  9998", "line2": "2 33320  97.6538 330.4716 0020418  49.4553 310.8435 14.83370889930052"}}, "geometry": {"type": "Point", "coordinates": [-25.552382306267965, -24.984940274803154]}}, {"type": "Feature", "properties": {"norad_id": 33321, "name": "HUANJING 1B (HJ-1B)", "group": "dmc", "lat": -25.452679422877026, "lon": 150.90040042444608, "alt_km": 637.8087009438259, "timestamp": "2025-12-08T08:59:00.438689+00:00", "meta": {"OBJECT_NAME": "HUANJING 1B (HJ-1B)", "OBJECT_ID": "2008-041B", "EPOCH": "2025-12-07T22:20:44.038464", "MEAN_MOTION": 14.82801828, "ECCENTRICITY": 0.00382368, "INCLINATION": 97.6397, "RA_OF_ASC_NODE": 334.1397, "ARG_OF_PERICENTER": 91.0339, "MEAN_ANOMALY": 269.5256, "EPHEMERIS_TYPE": 0, "CLASSIFICATION_TYPE": "U", "NORAD_CAT_ID": 33321, "ELEMENT_SET_NO": 999, "REV_AT_EPOCH": 93006, "BSTAR": 0.00024834093, "MEAN_MOTION_DOT": 1.983e-05, "MEAN_MOTION_DDOT": 0}, "tle": {"line1": "1 33321U 08041B   25341.93106526  .00001983  00000+0  24834-3 0  9996", "line2": "2 33321  97.6397 334.1397 0038236  91.0339 269.5256 14.82801828930067"}}, "geometry": {"type": "Point", "coordinates": [150.90040042444608, -25.452679422877026]}}, {"type": "Feature", "properties": {"norad_id": 33446, "name": "YAOGAN-4", "group": "dmc", "lat": 59.95984257815724, "lon": 106.44115300845242, "alt_km": 622.7219612211338, "timestamp": "2025-12-08T08:59:00.438701+00:00", "meta": {"OBJECT_NAME": "YAOGAN-4", "OBJECT_ID": "2008-061A", "EPOCH": "2025-12-07T19:29:28.070016", "MEAN_MOTION": 14.82658842, "ECCENTRICITY": 0.00140158, "INCLINATION": 97.9175, "RA_OF_ASC_NODE": 271.9595, "ARG_OF_PERICENTER": 340.0883, "MEAN_ANOMALY": 19.9782, "EPHEMERIS_TYPE": 0, "CLASSIFICATION_TYPE": "U", "NORAD_CAT_ID": 33446, "ELEMENT_SET_NO": 999, "REV_AT_EPOCH": 91730, "BSTAR": 0.00033913084, "MEAN_MOTION_DOT": 2.684e-05, "MEAN_MOTION_DDOT": 0}, "tle": {"line1": "1 33446U 08061A   25341.81213044  .00002684  00000+0  33913-3 0  9994", "line2": "2 33446  97.9175 271.9595 0014015 340.0883  19.9782 14.82658842917309"}}, "geometry": {"type": "Point", "coordinates": [106.44115300845242, 59.95984257815724]}}, {"type": "Feature", "properties": {"norad_id": 35681, "name": "DEIMOS-1", "group": "dmc", "lat": 9.793468867597202, "lon": 141.84024576832155, "alt_km": 646.6068363693394, "timestamp": "2025-12-08T08:59:00.438713+00:00", "meta": {"OBJECT_NAME": "DEIMOS-1", "OBJECT_ID": "2009-041A", "EPOCH": "2025-12-07T23:10:11.004960", "MEAN_MOTION": 14.74940888, "ECCENTRICITY": 0.00027008, "INCLINATION": 97.7153, "RA_OF_ASC_NODE": 142.7914, "ARG_OF_PERICENTER": 89.5996, "MEAN_ANOMALY": 270.5523, "EPHEMERIS_TYPE": 0, "CLASSIFICATION_TYPE": "U", "NORAD_CAT_ID": 35681, "ELEMENT_SET_NO": 999, "REV_AT_EPOCH": 87869, "BSTAR": 0.00018004868, "MEAN_MOTION_DOT": 1.162e-05, "MEAN_MOTION_DDOT": 0}, "tle": {"line1": "1 35681U 09041A   25341.96540515  .00001162  00000+0  18005-3 0  9993", "line2": "2 35681  97.7153 142.7914 0002700  89.5996 270.5523 14.74940888878695"}}, "geometry": {"type": "Point", "coordinates": [141.84024576832155, 9.793468867597202]}}, {"type": "Feature", "properties": {"norad_id": 35683, "name": "UK-DMC 2", "group": "dmc", "lat": 14.30944192954627, "lon": 115.38221468801548, "alt_km": 644.1342688422083, "timestamp": "2025-12-08T08:59:00.438724+00:00", "meta": {"OBJECT_NAME": "UK-DMC 2", "OBJECT_ID": "2009-041C", "EPOCH": "2025-12-07T23:09:12.729024", "MEAN_MOTION": 14.7560496, "ECCENTRICITY": 0.00013549, "INCLINATION": 97.8564, "RA_OF_ASC_NODE": 117.0027, "ARG_OF_PERICENTER": 101.7124, "MEAN_ANOMALY": 258.4238, "EPHEMERIS_TYPE": 0, "CLASSIFICATION_TYPE": "U", "NORAD_CAT_ID": 35683, "ELEMENT_SET_NO": 999, "REV_AT_EPOCH": 87836, "BSTAR": 0.00025668705, "MEAN_MOTION_DOT": 1.702e-05, "MEAN_MOTION_DDOT": 0}, "tle": {"line1": "1 35683U 09041C   25341.96473066  .00001702  00000+0  25669-3 0  9995", "line2": "2 35683  97.8564 117.0027 0001354 101.7124 258.4238 14.75604960878369"}}, "geometry": {"type": "Point", "coordinates": [115.38221468801548, 14.30944192954627]}}, {"type": "Feature", "properties": {"norad_id": 40715, "name": "DMC3-FM1", "group": "dmc", "lat": -82.30584261305506, "lon": -56.251534686403495, "alt_km": 618.3105779938778, "timestamp": "2025-12-08T08:59:00.438734+00:00", "meta": {"OBJECT_NAME": "DMC3-FM1", "OBJECT_ID": "2015-032A", "EPOCH": "2025-12-07T22:04:24.340224", "MEAN_MOTION": 14.85426953, "ECCENTRICITY": 0.00049449, "INCLINATION": 97.6703, "RA_OF_ASC_NODE": 209.2878, "ARG_OF_PERICENTER": 338.9638, "MEAN_ANOMALY": 21.1374, "EPHEMERIS_TYPE": 0, "CLASSIFICATION_TYPE": "U", "NORAD_CAT_ID": 40715, "ELEMENT_SET_NO": 999, "REV_AT_EPOCH": 56151, "BSTAR": 0.00015658523, "MEAN_MOTION_DOT": 1.298e-05, "MEAN_MOTION_DDOT": 0}, "tle": {"line1": "1 40715U 15032A   25341.91972616  .00001298  00000+0  15659-3 0  9992", "line2": "2 40715  97.6703 209.2878 0004944 338.9638  21.1374 14.85426953561511"}}, "geometry": {"type": "Point", "coordinates": [-56.251534686403495, -82.30584261305506]}}, {"type": "Feature", "properties": {"norad_id": 40716, "name": "DMC3-FM2", "group": "dmc", "lat": 30.316897167899043, "lon": 35.68983329599576, "alt_km": 614.5026172448652, "timestamp": "2025-12-08T08:59:00.438745+00:00", "meta": {"OBJECT_NAME": "DMC3-FM2", "OBJECT_ID": "2015-032B", "EPOCH": "2025-12-07T20:59:48.374880", "MEAN_MOTION": 14.8542921, "ECCENTRICITY": 0.00055836, "INCLINATION": 97.676, "RA_OF_ASC_NODE": 210.685, "ARG_OF_PERICENTER": 343.4534, "MEAN_ANOMALY": 16.6498, "EPHEMERIS_TYPE": 0, "CLASSIFICATION_TYPE": "U", "NORAD_CAT_ID": 40716, "ELEMENT_SET_NO": 999, "REV_AT_EPOCH": 56150, "BSTAR": 0.00018100968, "MEAN_MOTION_DOT": 1.508e-05, "MEAN_MOTION_DDOT": 0}, "tle": {"line1": "1 40716U 15032B   25341.87486545  .00001508  00000+0  18101-3 0  9998", "line2": "2 40716  97.6760 210.6850 0005583 343.4534  16.6498 14.85429210561501"}}, "geometry": {"type": "Point", "coordinates": [35.68983329599576, 30.316897167899043]}}, {"type": "Feature", "properties": {"norad_id": 40717, "name": "DMC3-FM3", "group": "dmc", "lat": 33.468215958197284, "lon": -152.3224470343718, "alt_km": 607.9947526487576, "timestamp": "2025-12-08T08:59:00.438755+00:00", "meta": {"OBJECT_NAME": "DMC3-FM3", "OBJECT_ID": "2015-032C", "EPOCH": "2025-12-07T21:30:53.861472", "MEAN_MOTION": 14.85419324, "ECCENTRICITY": 0.00049406, "INCLINATION": 97.6815, "RA_OF_ASC_NODE": 212.3356, "ARG_OF_PERICENTER": 345.5649, "MEAN_ANOMALY": 14.5425, "EPHEMERIS_TYPE": 0, "CLASSIFICATION_TYPE": "U", "NORAD_CAT_ID": 40717, "ELEMENT_SET_NO": 999, "REV_AT_EPOCH": 56151, "BSTAR": 0.00013331774, "MEAN_MOTION_DOT": 1.097e-05, "MEAN_MOTION_DDOT": 0}, "tle": {"line1": "1 40717U 15032C   25341.89645673  .00001097  00000+0  13332-3 0  9994", "line2": "2 40717  97.6815 212.3356 0004940 345.5649  14.5425 14.85419324561512"}}, "geometry": {"type": "Point", "coordinates": [-152.3224470343718, 33.468215958197284]}}]}